{
 "generated_at": "2026-06-27T07:50:14Z",
 "sources": [
  {
   "name": "CelesTrak",
   "url": "https://celestrak.org/NORAD/elements/",
   "license": "frei verfügbar; Attribution. Ursprünglich USSPACECOM/Space-Track."
  },
  {
   "name": "GCAT (J. McDowell, planet4589.org)",
   "url": "https://planet4589.org/space/gcat/",
   "license": "CC-BY 4.0"
  }
 ],
 "satellites": [
  {
   "norad": 43010,
   "name": "FENGYUN 3D",
   "intl": "2017-072A",
   "group": "weather",
   "gcat": {
    "class": "C",
    "category": "MET",
    "owner": "NSMC",
    "state": "CN"
   },
   "omm": {
    "OBJECT_NAME": "FENGYUN 3D",
    "OBJECT_ID": "2017-072A",
    "EPOCH": "2026-06-26T22:38:25.376064",
    "MEAN_MOTION": 14.19740314,
    "ECCENTRICITY": 0.00023073,
    "INCLINATION": 99.0124,
    "RA_OF_ASC_NODE": 152.5418,
    "ARG_OF_PERICENTER": 47.5338,
    "MEAN_ANOMALY": 312.6032,
    "EPHEMERIS_TYPE": 0,
    "CLASSIFICATION_TYPE": "U",
    "NORAD_CAT_ID": 43010,
    "ELEMENT_SET_NO": 999,
    "REV_AT_EPOCH": 44637,
    "BSTAR": -0.000099949214,
    "MEAN_MOTION_DOT": -0.00000258,
    "MEAN_MOTION_DDOT": 0
   }
  },
  {
   "norad": 49008,
   "name": "FENGYUN 3E",
   "intl": "2021-062A",
   "group": "weather",
   "gcat": {
    "class": "C",
    "category": "MET",
    "owner": "NSMC",
    "state": "CN"
   },
   "omm": {
    "OBJECT_NAME": "FENGYUN 3E",
    "OBJECT_ID": "2021-062A",
    "EPOCH": "2026-06-26T23:55:06.077568",
    "MEAN_MOTION": 14.19904924,
    "ECCENTRICITY": 0.00027614,
    "INCLINATION": 98.7493,
    "RA_OF_ASC_NODE": 181.295,
    "ARG_OF_PERICENTER": 70.8453,
    "MEAN_ANOMALY": 289.3022,
    "EPHEMERIS_TYPE": 0,
    "CLASSIFICATION_TYPE": "U",
    "NORAD_CAT_ID": 49008,
    "ELEMENT_SET_NO": 999,
    "REV_AT_EPOCH": 25797,
    "BSTAR": 0.000058738021,
    "MEAN_MOTION_DOT": 8.1e-7,
    "MEAN_MOTION_DDOT": 0
   }
  },
  {
   "norad": 57490,
   "name": "FENGYUN 3F",
   "intl": "2023-111A",
   "group": "weather",
   "gcat": {
    "class": "C",
    "category": "MET",
    "owner": "NSMC",
    "state": "CN"
   },
   "omm": {
    "OBJECT_NAME": "FENGYUN 3F",
    "OBJECT_ID": "2023-111A",
    "EPOCH": "2026-06-26T21:50:08.359872",
    "MEAN_MOTION": 14.19940574,
    "ECCENTRICITY": 0.00015512,
    "INCLINATION": 98.6834,
    "RA_OF_ASC_NODE": 247.7373,
    "ARG_OF_PERICENTER": 86.1153,
    "MEAN_ANOMALY": 274.0201,
    "EPHEMERIS_TYPE": 0,
    "CLASSIFICATION_TYPE": "U",
    "NORAD_CAT_ID": 57490,
    "ELEMENT_SET_NO": 999,
    "REV_AT_EPOCH": 15024,
    "BSTAR": 0.000036966296,
    "MEAN_MOTION_DOT": 3.5e-7,
    "MEAN_MOTION_DDOT": 0
   }
  },
  {
   "norad": 56232,
   "name": "FENGYUN 3G",
   "intl": "2023-055A",
   "group": "weather",
   "gcat": {
    "class": "C",
    "category": "MET",
    "owner": "NSMC",
    "state": "CN"
   },
   "omm": {
    "OBJECT_NAME": "FENGYUN 3G",
    "OBJECT_ID": "2023-055A",
    "EPOCH": "2026-06-26T21:18:12.582432",
    "MEAN_MOTION": 15.53045822,
    "ECCENTRICITY": 0.00072181,
    "INCLINATION": 49.9931,
    "RA_OF_ASC_NODE": 296.0248,
    "ARG_OF_PERICENTER": 336.907,
    "MEAN_ANOMALY": 23.1572,
    "EPHEMERIS_TYPE": 0,
    "CLASSIFICATION_TYPE": "U",
    "NORAD_CAT_ID": 56232,
    "ELEMENT_SET_NO": 999,
    "REV_AT_EPOCH": 18151,
    "BSTAR": 0.00037562625,
    "MEAN_MOTION_DOT": 0.00023563,
    "MEAN_MOTION_DDOT": 0
   }
  },
  {
   "norad": 65815,
   "name": "FENGYUN 3H",
   "intl": "2025-219A",
   "group": "weather",
   "gcat": {
    "class": "C",
    "category": "MET",
    "owner": "NSMC",
    "state": "CN"
   },
   "omm": {
    "OBJECT_NAME": "FENGYUN 3H",
    "OBJECT_ID": "2025-219A",
    "EPOCH": "2026-06-26T20:03:37.971360",
    "MEAN_MOTION": 14.19922004,
    "ECCENTRICITY": 0.00015122,
    "INCLINATION": 98.6769,
    "RA_OF_ASC_NODE": 118.4174,
    "ARG_OF_PERICENTER": 70.5708,
    "MEAN_ANOMALY": 289.5631,
    "EPHEMERIS_TYPE": 0,
    "CLASSIFICATION_TYPE": "U",
    "NORAD_CAT_ID": 65815,
    "ELEMENT_SET_NO": 999,
    "REV_AT_EPOCH": 3875,
    "BSTAR": 0.00003673164,
    "MEAN_MOTION_DOT": 3.5e-7,
    "MEAN_MOTION_DDOT": 0
   }
  },
  {
   "norad": 41882,
   "name": "FENGYUN 4A",
   "intl": "2016-077A",
   "group": "weather",
   "gcat": {
    "class": "C",
    "category": "MET",
    "owner": "NSMC",
    "state": "CN"
   },
   "omm": {
    "OBJECT_NAME": "FENGYUN 4A",
    "OBJECT_ID": "2016-077A",
    "EPOCH": "2026-06-26T13:08:30.580224",
    "MEAN_MOTION": 1.00264621,
    "ECCENTRICITY": 0.0008229,
    "INCLINATION": 2.3469,
    "RA_OF_ASC_NODE": 80.1884,
    "ARG_OF_PERICENTER": 152.1316,
    "MEAN_ANOMALY": 3.0696,
    "EPHEMERIS_TYPE": 0,
    "CLASSIFICATION_TYPE": "U",
    "NORAD_CAT_ID": 41882,
    "ELEMENT_SET_NO": 999,
    "REV_AT_EPOCH": 3502,
    "BSTAR": 0,
    "MEAN_MOTION_DOT": -0.00000348,
    "MEAN_MOTION_DDOT": 0
   }
  },
  {
   "norad": 42920,
   "name": "FORMOSAT-5",
   "intl": "2017-049A",
   "group": "resource",
   "gcat": {
    "class": "C",
    "category": "IMG/SCI",
    "owner": "NSPO",
    "state": "TW"
   },
   "omm": {
    "OBJECT_NAME": "FORMOSAT-5",
    "OBJECT_ID": "2017-049A",
    "EPOCH": "2026-06-26T21:57:05.332320",
    "MEAN_MOTION": 14.50902035,
    "ECCENTRICITY": 0.00124343,
    "INCLINATION": 98.2253,
    "RA_OF_ASC_NODE": 253.0083,
    "ARG_OF_PERICENTER": 57.3169,
    "MEAN_ANOMALY": 302.9223,
    "EPHEMERIS_TYPE": 0,
    "CLASSIFICATION_TYPE": "U",
    "NORAD_CAT_ID": 42920,
    "ELEMENT_SET_NO": 999,
    "REV_AT_EPOCH": 46808,
    "BSTAR": 0.000046713765,
    "MEAN_MOTION_DOT": 0.00000141,
    "MEAN_MOTION_DDOT": 0
   }
  },
  {
   "norad": 39150,
   "name": "GAOFEN-1",
   "intl": "2013-018A",
   "group": "resource",
   "gcat": {
    "class": "C",
    "category": "IMG",
    "owner": "CNSAS",
    "state": "CN"
   },
   "omm": {
    "OBJECT_NAME": "GAOFEN-1",
    "OBJECT_ID": "2013-018A",
    "EPOCH": "2026-06-26T22:58:04.075104",
    "MEAN_MOTION": 14.76546064,
    "ECCENTRICITY": 0.00158784,
    "INCLINATION": 97.9096,
    "RA_OF_ASC_NODE": 249.8264,
    "ARG_OF_PERICENTER": 232.1337,
    "MEAN_ANOMALY": 127.8438,
    "EPHEMERIS_TYPE": 0,
    "CLASSIFICATION_TYPE": "U",
    "NORAD_CAT_ID": 39150,
    "ELEMENT_SET_NO": 999,
    "REV_AT_EPOCH": 70968,
    "BSTAR": 0.000088247262,
    "MEAN_MOTION_DOT": 0.00000565,
    "MEAN_MOTION_DDOT": 0
   }
  },
  {
   "norad": 43259,
   "name": "GAOFEN-1 02",
   "intl": "2018-031A",
   "group": "resource",
   "gcat": {
    "class": "C",
    "category": "IMG",
    "owner": "CNSAS",
    "state": "CN"
   },
   "omm": {
    "OBJECT_NAME": "GAOFEN-1 02",
    "OBJECT_ID": "2018-031A",
    "EPOCH": "2026-06-26T23:45:20.169792",
    "MEAN_MOTION": 14.76420088,
    "ECCENTRICITY": 0.00029204,
    "INCLINATION": 98.0528,
    "RA_OF_ASC_NODE": 240.4894,
    "ARG_OF_PERICENTER": 6.7727,
    "MEAN_ANOMALY": 353.3521,
    "EPHEMERIS_TYPE": 0,
    "CLASSIFICATION_TYPE": "U",
    "NORAD_CAT_ID": 43259,
    "ELEMENT_SET_NO": 999,
    "REV_AT_EPOCH": 44414,
    "BSTAR": 0.000086480483,
    "MEAN_MOTION_DOT": 0.0000055,
    "MEAN_MOTION_DDOT": 0
   }
  },
  {
   "norad": 43260,
   "name": "GAOFEN-1 03",
   "intl": "2018-031B",
   "group": "resource",
   "gcat": {
    "class": "C",
    "category": "IMG",
    "owner": "CNSAS",
    "state": "CN"
   },
   "omm": {
    "OBJECT_NAME": "GAOFEN-1 03",
    "OBJECT_ID": "2018-031B",
    "EPOCH": "2026-06-26T19:58:31.298880",
    "MEAN_MOTION": 14.76437185,
    "ECCENTRICITY": 0.00036191,
    "INCLINATION": 98.0515,
    "RA_OF_ASC_NODE": 240.1899,
    "ARG_OF_PERICENTER": 59.6399,
    "MEAN_ANOMALY": 300.5168,
    "EPHEMERIS_TYPE": 0,
    "CLASSIFICATION_TYPE": "U",
    "NORAD_CAT_ID": 43260,
    "ELEMENT_SET_NO": 999,
    "REV_AT_EPOCH": 44411,
    "BSTAR": 0.000023125463,
    "MEAN_MOTION_DOT": 0.00000109,
    "MEAN_MOTION_DDOT": 0
   }
  }
 ]
}
