GAOFEN-1                
1 39150U 13018A   26177.95699161  .00000565  00000+0  88247-4 0  9998
2 39150  97.9096 249.8264 0015878 232.1337 127.8438 14.76546064709681
FENGYUN 4A              
1 41882U 16077A   26177.54757616 -.00000348  00000+0  00000+0 0  9992
2 41882   2.3469  80.1884 0008229 152.1316   3.0696  1.00264621 35024
FORMOSAT-5              
1 42920U 17049A   26177.91464505  .00000141  00000+0  46714-4 0  9996
2 42920  98.2253 253.0083 0012434  57.3169 302.9223 14.50902035468080
FENGYUN 3D              
1 43010U 17072A   26177.94334926 -.00000258  00000+0 -99949-4 0  9998
2 43010  99.0124 152.5418 0002307  47.5338 312.6032 14.19740314446378
GAOFEN-1 02             
1 43259U 18031A   26177.98981678  .00000550  00000+0  86480-4 0  9994
2 43259  98.0528 240.4894 0002920   6.7727 353.3521 14.76420088444149
GAOFEN-1 03             
1 43260U 18031B   26177.83230670  .00000109  00000+0  23125-4 0  9996
2 43260  98.0515 240.1899 0003619  59.6399 300.5168 14.76437185444111
FENGYUN 3E              
1 49008U 21062A   26177.99659812  .00000081  00000+0  58738-4 0  9997
2 49008  98.7493 181.2950 0002761  70.8453 289.3022 14.19904924257971
FENGYUN 3G              
1 56232U 23055A   26177.88764563  .00023563  00000+0  37563-3 0  9998
2 56232  49.9931 296.0248 0007218 336.9070  23.1572 15.53045822181513
FENGYUN 3F              
1 57490U 23111A   26177.90981898  .00000035  00000+0  36966-4 0  9999
2 57490  98.6834 247.7373 0001551  86.1153 274.0201 14.19940574150246
FENGYUN 3H              
1 65815U 25219A   26177.83585615  .00000035  00000+0  36732-4 0  9990
2 65815  98.6769 118.4174 0001512  70.5708 289.5631 14.19922004 38753
